QIANFAN-33              
1 61566U 24185Q   25215.92153617  .00000166  00000+0  11016-3 0  9997
2 61566  88.9784  93.4133 0008072  28.4834 331.6783 13.96407273 50906
QIANFAN-34              
1 61567U 24185R   25215.92364198  .00000277  00000+0  17252-3 0  9997
2 61567  88.9760  93.1494 0007255  40.5416 319.6303 14.02157673 51023
QIANFAN-35              
1 61568U 24185S   25215.92299074  .00000464  00000+0  18265-3 0  9991
2 61568  88.9785  92.2546 0007359  15.1996 344.9418 14.27658574 51510
QIANFAN-36              
1 61569U 24185T   25215.94291911  .00000070  00000+0  83326-4 0  9990
2 61569  88.9774  94.6883 0008079  66.1024 294.0976 13.55544734 50208
QIANFAN-37              
1 62238U 24232B   25215.89767407  .00000059  00000+0  73190-4 0  9994
2 62238  88.9925  54.5625 0002582  94.8769 265.2677 13.50965056 81500
QIANFAN-38              
1 62239U 24232C   25215.92249574  .00000056  00000+0  68902-4 0  9991
2 62239  88.9931  54.4668 0013501 206.7041 153.3416 13.50953548 81561
QIANFAN-39              
1 62240U 24232D   25215.91075087  .00000154  00000+0  59033-4 0  9992
2 62240  88.9929  52.2931 0017489 140.7310 219.5155 14.25229569 82753
QIANFAN-40              
1 62241U 24232E   25215.88127914  .00000047  00000+0  53886-4 0  9997
2 62241  88.9959  54.0187 0012313 214.9366 145.0979 13.50959594 81926
